FLOCK 3P-85             
1 41983U 17008AM  18033.40037395  .00001920  00000-0  82332-4 0  9991
2 41983  97.4702  99.1417 0009884 110.0365 250.1937 15.23937090 53422
FLOCK 3P-79             
1 41984U 17008AN  18032.94199507  .00000928  00000-0  41423-4 0  9997
2 41984  97.4703  98.6809 0009621 110.8195 249.4074 15.23858250 53356
FLOCK 3P-86             
1 41985U 17008AP  18032.94364253  .00001055  00000-0  46705-4 0  9990
2 41985  97.4702  98.6730 0009601 110.3284 249.8985 15.23845120 53347
FLOCK 3P-36             
1 41986U 17008AQ  18033.14274909  .00000959  00000-0  42696-4 0  9999
2 41986  97.4685  98.7845 0009381 107.5576 252.6687 15.23861772 52861
FLOCK 3P-30             
1 41987U 17008AR  18033.85676983  .00002600  00000-0  11058-3 0  9998
2 41987  97.4681  99.5153 0009276 106.9692 253.2563 15.23899477 53442
FLOCK 3P-34             
1 41988U 17008AS  18032.75194636  .00001072  00000-0  47371-4 0  9997
2 41988  97.4682  98.3694 0009435 106.9099 253.3173 15.23863882 52807
FLOCK 3P-35             
1 41989U 17008AT  18033.47776964  .00002671  00000-0  11364-3 0  9996
2 41989  97.4677  99.0817 0009606 104.7636 255.4666 15.23856451 52916
FLOCK 3P-33             
1 41990U 17008AU  18033.20933628  .00000933  00000-0  41650-4 0  9992
2 41990  97.4681  98.8352 0009241 106.2371 253.9883 15.23861136 52877
LEMUR-2-SATCHMO         
1 41991U 17008AV  18033.84388952  .00000914  00000-0  41899-4 0  9991
2 41991  97.4667  99.1929 0009457 106.8351 253.3924 15.22991836 52958
LEMUR-2-MIA-GRACE       
1 41992U 17008AW  18033.25782142  .00001415  00000-0  62284-4 0  9994
2 41992  97.4674  98.7645 0009339 108.5521 251.6731 15.23489887 52871
LEMUR-2-SMITA-SHARAD    
1 41993U 17008AX  18032.69982378  .00000992  00000-0  44975-4 0  9991
2 41993  97.4670  98.1205 0009359 109.8323 250.3923 15.23165363 52789
LEMUR-2-SPIRE-MINIONS   
1 41994U 17008AY  18033.39872742  .00001366  00000-0  60286-4 0  9992
2 41994  97.4671  98.8720 0009381 107.5135 252.7127 15.23448297 52895
LEMUR-2-RDEATON         
1 41995U 17008AZ  18033.34809610  .00000987  00000-0  44688-4 0  9998
2 41995  97.4670  98.7902 0010324 119.6428 240.5838 15.23219934 53567
LEMUR-2-NOGUECORREIG    
1 41996U 17008BA  18033.45019212  .00001287  00000-0  56952-4 0  9993
2 41996  97.4678  98.9726 0010241 119.9045 240.3211 15.23451684 52807
LEMUR-2-JOBANPUTRA      
1 41997U 17008BB  18033.81901467  .00001262  00000-0  55688-4 0  9994
2 41997  97.4679  99.4011 0010245 118.6343 241.5926 15.23582541 52952
LEMUR-2-TACHIKOMA       
1 41998U 17008BC  18032.89832907  .00000996  00000-0  45179-4 0  9991
2 41998  97.4669  98.3163 0010212 121.3615 238.8622 15.23117328 52730
BGUSAT                  
1 41999U 17008BD  18032.86398878  .00001807  00000-0  77575-4 0  9990
2 41999  97.4685  98.5522 0010062 122.4515 237.7696 15.23967223 52819
DIDO-2                  
1 42000U 17008BE  18033.18352584  .00000826  00000-0  38232-4 0  9991
2 42000  97.4664  98.5395 0010197 121.1356 239.0882 15.22905883 52855
FLOCK 3P-49             
1 42001U 17008BF  18033.85338782  .00002294  00000-0  97970-4 0  9995
2 42001  97.4679  99.5109 0009833 119.7623 240.4593 15.23868839 53497
FLOCK 3P-67             
1 42002U 17008BG  18033.12808945  .00001949  00000-0  83252-4 0  9993
2 42002  97.4679  98.7872 0009644 120.9525 239.2661 15.24047652 53542
FLOCK 3P-68             
1 42003U 17008BH  18033.33441885  .00001020  00000-0  45211-4 0  9996
2 42003  97.4679  98.9650 0009863 119.1453 241.0772 15.23868565 53213
FLOCK 3P-41             
1 42004U 17008BJ  18033.84833024  .00000756  00000-0  34296-4 0  9999
2 42004  97.4678  99.4970 0009693 119.6599 240.5604 15.23844588 53487
FLOCK 3P-45             
1 42005U 17008BK  18033.84554432  .00001882  00000-0  80463-4 0  9991
2 42005  97.4678  99.5123 0009541 119.8365 240.3821 15.24060809 53648
FLOCK 3P-48             
1 42006U 17008BL  18033.45771744  .00002829  00000-0  12015-3 0  9995
2 42006  97.4682  99.1216 0009520 121.5328 238.6840 15.23865997 53370
FLOCK 3P-43             
1 42007U 17008BM  18032.80309013  .00000655  00000-0  30213-4 0  9996
2 42007  97.4683  98.4520 0009452 123.7940 236.4199 15.23722198 53480
FLOCK 3P-42             
1 42008U 17008BN  18033.65293241  .00000972  00000-0  43226-4 0  9996
2 42008  97.4677  99.2977 0009513 120.9020 239.3154 15.23867116 53545
FLOCK 3P-61             
1 42009U 17008BP  18033.12665847  .00002633  00000-0  11194-3 0  9998
2 42009  97.4677  98.7834 0009397 124.4223 235.7903 15.23894458 53514
FLOCK 3P-40             
1 42010U 17008BQ  18033.84280711  .00002571  00000-0  10935-3 0  9995
2 42010  97.4669  99.4850 0009337 122.9485 237.2651 15.23896830 52882
FLOCK 3P-16             
1 42011U 17008BR  18032.91228042  .00002596  00000-0  11055-3 0  9993
2 42011  97.4672  98.5881 0008948 125.7906 234.4164 15.23858462 52682
FLOCK 3P-14             
1 42012U 17008BS  18033.17381545  .00001362  00000-0  59316-4 0  9994
2 42012  97.4684  98.8729 0009158 127.3955 232.8117 15.23914956 53341
FLOCK 3P-53             
1 42013U 17008BT  18032.65290929  .00000906  00000-0  40515-4 0  9996
2 42013  97.4672  98.3037 0008934 126.4942 233.7120 15.23853721 53260
FLOCK 3P-54             
1 42014U 17008BU  18033.83826590  .00002536  00000-0  10795-3 0  9994
2 42014  97.4671  99.4967 0008944 124.3594 235.8490 15.23887081 53613
PEASSS                  
1 42015U 17008BV  18033.16521697  .00000958  00000-0  42927-4 0  9990
2 42015  97.4658  98.8261 0007958 126.5215 233.6756 15.23648660 53357
AL-FARABI 1             
1 42016U 17008BW  18033.51875441  .00001238  00000-0  54111-4 0  9999
2 42016  97.4663  99.2878 0007894 126.1009 234.0960 15.23977179 53531
NAYIF-1 (EO-88)         
1 42017U 17008BX  18032.92405519  .00001215  00000-0  53099-4 0  9998
2 42017  97.4663  98.7008 0007825 127.8919 232.3027 15.23995924 53468
FLOCK 3P-23             
1 42018U 17008BY  18033.18035509  .00002686  00000-0  11414-3 0  9993
2 42018  97.4668  98.6777 0010344 104.2489 255.9898 15.23887575 52319
FLOCK 3P-76             
1 42019U 17008BZ  18033.14729475  .00001927  00000-0  82787-4 0  9991
2 42019  97.4705  98.8777 0010011 108.8597 251.3727 15.23858970 53370
FLOCK 3P-69             
1 42020U 17008CA  18032.88308782  .00002531  00000-0  10778-3 0  9999
2 42020  97.4703  98.6171 0009901 109.0140 251.2171 15.23866912 52229
FLOCK 3P-84             
1 42021U 17008CB  18033.15601048  .00002682  00000-0  11398-3 0  9998
2 42021  97.4698  98.8449 0010254 107.9503 252.2852 15.23884201 53382
FLOCK 3P-59             
1 42022U 17008CC  18033.48142646  .00001911  00000-0  81824-4 0  9995
2 42022  97.4678  99.0802 0009637 107.0516 253.1777 15.23987831 52451
FLOCK 3P-32             
1 42023U 17008CD  18032.89791056  .00002590  00000-0  11023-3 0  9992
2 42023  97.4678  98.4854 0009686 106.0555 254.1749 15.23875026 53507
FLOCK 3P-71             
1 42024U 17008CE  18032.91523426  .00002376  00000-0  10133-3 0  9993
2 42024  97.4701  98.5799 0009983 110.1342 250.0970 15.23877374 52377
FLOCK 3P-77             
1 42025U 17008CF  18033.87090106  .00002633  00000-0  11199-3 0  9993
2 42025  97.4699  99.5835 0009954 107.3381 252.8946 15.23874844 53491
FLOCK 3P-80             
1 42026U 17008CG  18032.73468966  .00000923  00000-0  41083-4 0  9997
2 42026  97.4702  98.4921 0009541 110.7503 249.4758 15.23982522 51468
FLOCK 3P-66             
1 42027U 17008CH  18033.85920778  .00002291  00000-0  97815-4 0  9990
2 42027  97.4678  99.5027 0009914 117.4556 242.7690 15.23888350 53609
FLOCK 3P-65             
1 42028U 17008CJ  18033.46333113  .00002429  00000-0  10357-3 0  9997
2 42028  97.4680  99.1125 0009765 118.9222 241.2996 15.23874923 53444
FLOCK 3P-50             
1 42029U 17008CK  18033.45993637  .00000999  00000-0  44365-4 0  9997
2 42029  97.4686  99.1272 0009569 120.5815 239.6367 15.23850216 52769
FLOCK 3P-52             
1 42030U 17008CL  18033.46189772  .00002616  00000-0  11125-3 0  9992
2 42030  97.4679  99.1092 0009649 120.1059 240.1136 15.23888197 53534
FLOCK 3P-46             
1 42031U 17008CM  18032.93163926  .00002716  00000-0  11546-3 0  9995
2 42031  97.4677  98.5824 0009570 122.5138 237.7025 15.23867240 53485
FLOCK 3P-47             
1 42032U 17008CN  18033.85268526  .00002644  00000-0  11248-3 0  9999
2 42032  97.4674  99.4936 0009552 120.1177 240.1008 15.23872996 53476
FLOCK 3P-44             
1 42033U 17008CP  18033.12781867  .00000572  00000-0  26805-4 0  9992
2 42033  97.4684  98.7904 0009558 124.8168 235.3970 15.23703307 52115
FLOCK 3P-64             
1 42034U 17008CQ  18032.86223036  .00002682  00000-0  11400-3 0  9990
2 42034  97.4676  98.5132 0009388 124.9370 235.2751 15.23884449 53490
FLOCK 3P-63             
1 42035U 17008CR  18033.45108870  .00002546  00000-0  10841-3 0  9992
2 42035  97.4672  99.0979 0009381 123.1015 237.1124 15.23876137 51557
FLOCK 3P-62             
1 42036U 17008CS  18032.89806536  .00001926  00000-0  82121-4 0  9996
2 42036  97.4677  98.6193 0009292 126.0449 234.1650 15.24134784 52671
FLOCK 3P-38             
1 42037U 17008CT  18033.18696952  .00002410  00000-0  10274-3 0  9997
2 42037  97.4674  98.8419 0009092 124.5773 235.6323 15.23883135 53497
FLOCK 3P-39             
1 42038U 17008CU  18033.38178566  .00002591  00000-0  11029-3 0  9995
2 42038  97.4670  99.0239 0009314 124.2069 236.0052 15.23868647 53472
FLOCK 3P-15             
1 42039U 17008CV  18032.86133130  .00002837  00000-0  12038-3 0  9990
2 42039  97.4674  98.5087 0009189 125.4454 234.7642 15.23892829 52673
FLOCK 3P-13             
1 42040U 17008CW  18033.11932634  .00001097  00000-0  48580-4 0  9996
2 42040  97.4682  98.7879 0009074 125.6012 234.6072 15.23765205 52707
FLOCK 3P-55             
1 42041U 17008CX  18033.16270433  .00002519  00000-0  10733-3 0  9992
2 42041  97.4676  98.8763 0008828 128.4921 231.7109 15.23866980 53555
